{
"type": "FeatureCollection",
"name": "gamma_fit_78",
"crs": { "type": "name", "properties": { "name": "urn:ogc:def:crs:OGC:1.3:CRS84" } },
"features": [
{ "type": "Feature", "properties": { "X1": 1.0, "log_hist_precip": 1.0447276954609361, "log_hist_temp": -1.2890661099415175, "lat": 1.9563268886556195, "lon": -0.5614848313368147, "latlon": -1.098447873116476, "log_co2e_ha_2017": 6.4147793443996575, "id_group": 1 }, "geometry": { "type": "Polygon", "coordinates": [ [ [ -64.281465437967896, 2.844245852579274 ], [ -64.281465437967896, 5.269697119701953 ], [ -61.856014170845199, 5.269697119701929 ], [ -61.856014170845199, 2.844245852579263 ], [ -64.281465437967896, 2.844245852579274 ] ] ] } },
{ "type": "Feature", "properties": { "X1": 1.0, "log_hist_precip": -0.7903778074500426, "log_hist_temp": -0.62480652737719966, "lat": 1.9563268886556051, "lon": -0.21145958799072978, "latlon": -0.41368407785030054, "log_co2e_ha_2017": 6.2981689968984744, "id_group": 2 }, "geometry": { "type": "Polygon", "coordinates": [ [ [ -61.856014170845199, 2.844245852579263 ], [ -61.856014170845199, 5.269697119701929 ], [ -59.430562903722475, 5.269697119701958 ], [ -59.430562903722475, 2.844245852579259 ], [ -61.856014170845199, 2.844245852579263 ] ] ] } },
{ "type": "Feature", "properties": { "X1": 1.0, "log_hist_precip": 1.8361241825005605, "log_hist_temp": 0.16507799285551045, "lat": 1.9563268886556513, "lon": 1.188641385393578, "latlon": 2.3253711032143616, "log_co2e_ha_2017": 6.4904892968186685, "id_group": 3 }, "geometry": { "type": "Polygon", "coordinates": [ [ [ -52.154209102354358, 2.84424585257926 ], [ -52.154209102354365, 5.269697119701904 ], [ -49.728757835231647, 5.26969711970197 ], [ -49.728757835231647, 2.844245852579257 ], [ -52.154209102354358, 2.84424585257926 ] ] ] } },
{ "type": "Feature", "properties": { "X1": 1.0, "log_hist_precip": 1.8681305728895687, "log_hist_temp": 0.17436445930392103, "lat": 1.4405595749010027, "lon": -1.6115605613750439, "latlon": -2.3215489972216545, "log_co2e_ha_2017": 6.2778021288975356, "id_group": 4 }, "geometry": { "type": "Polygon", "coordinates": [ [ [ -71.557819239336027, 0.418794585456163 ], [ -71.557819239336027, 2.844245852579173 ], [ -69.132367972213345, 2.844245852579225 ], [ -69.132367972213345, 0.418794585456746 ], [ -71.557819239336027, 0.418794585456163 ] ] ] } },
{ "type": "Feature", "properties": { "X1": 1.0, "log_hist_precip": 2.4424137353640627, "log_hist_temp": 0.44512690412569039, "lat": 1.4405595749010498, "lon": -1.2615353180289568, "latlon": -1.8173167814624547, "log_co2e_ha_2017": 6.1578613157851407, "id_group": 5 }, "geometry": { "type": "Polygon", "coordinates": [ [ [ -69.132367972213316, 0.418794585456746 ], [ -69.132367972213316, 2.844245852579225 ], [ -66.70691670509062, 2.844245852579238 ], [ -66.70691670509062, 0.418794585456735 ], [ -69.132367972213316, 0.418794585456746 ] ] ] } },
{ "type": "Feature", "properties": { "X1": 1.0, "log_hist_precip": 1.3737126807125462, "log_hist_temp": 0.096905907296440802, "lat": 1.4405595749010232, "lon": -0.91151007468291911, "latlon": -1.3130845657032257, "log_co2e_ha_2017": 6.2929279090391805, "id_group": 6 }, "geometry": { "type": "Polygon", "coordinates": [ [ [ -66.706916705090606, 0.418794585456735 ], [ -66.706916705090606, 2.844245852579238 ], [ -64.28146543796791, 2.844245852579274 ], [ -64.28146543796791, 0.418794585456269 ], [ -66.706916705090606, 0.418794585456735 ] ] ] } },
{ "type": "Feature", "properties": { "X1": 1.0, "log_hist_precip": 0.19064240877342573, "log_hist_temp": 0.1120900200828375, "lat": 1.4405595749010238, "lon": -0.56148483133681271, "latlon": -0.80885234994393196, "log_co2e_ha_2017": 6.3289196278047317, "id_group": 7 }, "geometry": { "type": "Polygon", "coordinates": [ [ [ -64.281465437967896, 0.41879458545627 ], [ -64.281465437967896, 2.844245852579274 ], [ -61.856014170845199, 2.844245852579263 ], [ -61.856014170845199, 0.418794585456868 ], [ -64.281465437967896, 0.41879458545627 ] ] ] } },
{ "type": "Feature", "properties": { "X1": 1.0, "log_hist_precip": -0.79653192604256995, "log_hist_temp": 1.4547740013638051, "lat": 1.4405595749010234, "lon": -0.21145958799072365, "latlon": -0.30462013418466238, "log_co2e_ha_2017": 6.2034204460026059, "id_group": 8 }, "geometry": { "type": "Polygon", "coordinates": [ [ [ -61.856014170845199, 0.418794585456868 ], [ -61.856014170845199, 2.844245852579263 ], [ -59.430562903722475, 2.844245852579259 ], [ -59.430562903722475, 0.418794585456184 ], [ -61.856014170845199, 0.418794585456868 ] ] ] } },
{ "type": "Feature", "properties": { "X1": 1.0, "log_hist_precip": -0.87513763915427267, "log_hist_temp": 0.18191040900502581, "lat": 1.4405595749010245, "lon": 0.13856565535533361, "latlon": 0.19961208157456126, "log_co2e_ha_2017": 6.4499157533678364, "id_group": 9 }, "geometry": { "type": "Polygon", "coordinates": [ [ [ -59.430562903722489, 0.418794585456184 ], [ -59.430562903722489, 2.844245852579259 ], [ -57.005111636599779, 2.844245852579238 ], [ -57.005111636599779, 0.418794585456746 ], [ -59.430562903722489, 0.418794585456184 ] ] ] } },
{ "type": "Feature", "properties": { "X1": 1.0, "log_hist_precip": -0.38528700615682709, "log_hist_temp": -0.43242809401862553, "lat": 1.4405595749010196, "lon": 0.48859089870137135, "latlon": 0.70384429733375464, "log_co2e_ha_2017": 6.4526397491693599, "id_group": 10 }, "geometry": { "type": "Polygon", "coordinates": [ [ [ -57.005111636599779, 0.418794585456746 ], [ -57.005111636599779, 2.844245852579238 ], [ -54.579660369477068, 2.844245852579208 ], [ -54.579660369477068, 0.418794585456265 ], [ -57.005111636599779, 0.418794585456746 ] ] ] } },
{ "type": "Feature", "properties": { "X1": 1.0, "log_hist_precip": 0.39169932919605588, "log_hist_temp": -0.54058184941322629, "lat": 1.440559574900999, "lon": 0.83861614204748502, "latlon": 1.2080765130930409, "log_co2e_ha_2017": 6.6054380373967199, "id_group": 11 }, "geometry": { "type": "Polygon", "coordinates": [ [ [ -54.579660369477068, 0.418794585456265 ], [ -54.579660369477068, 2.844245852579208 ], [ -52.154209102354358, 2.84424585257926 ], [ -52.154209102354358, 0.418794585456523 ], [ -54.579660369477068, 0.418794585456265 ] ] ] } },
{ "type": "Feature", "properties": { "X1": 1.0, "log_hist_precip": 0.63992752146536136, "log_hist_temp": 0.70850944170180374, "lat": 1.4405595749010025, "lon": 1.1886413853935689, "latlon": 1.7123087288522982, "log_co2e_ha_2017": 6.5595440387118362, "id_group": 12 }, "geometry": { "type": "Polygon", "coordinates": [ [ [ -52.154209102354358, 0.418794585456523 ], [ -52.154209102354358, 2.84424585257926 ], [ -49.728757835231647, 2.844245852579257 ], [ -49.728757835231647, 0.418794585456237 ], [ -52.154209102354358, 0.418794585456523 ] ] ] } },
{ "type": "Feature", "properties": { "X1": 1.0, "log_hist_precip": 1.9255619366063543, "log_hist_temp": 0.092208362983729197, "lat": 0.92479151901221612, "lon": -1.6115605613750499, "latlon": -1.4903575395342121, "log_co2e_ha_2017": 6.3570656228689026, "id_group": 13 }, "geometry": { "type": "Polygon", "coordinates": [ [ [ -71.557819239336027, -2.006656681666259 ], [ -71.557819239336027, 0.418794585456163 ], [ -69.132367972213345, 0.418794585456746 ], [ -69.132367972213345, -2.006656681666134 ], [ -71.557819239336027, -2.006656681666259 ] ] ] } },
{ "type": "Feature", "properties": { "X1": 1.0, "log_hist_precip": 2.0325731733223025, "log_hist_temp": 0.01306570133311819, "lat": 0.92479151901224765, "lon": -1.261535318028963, "latlon": -1.1666571630476037, "log_co2e_ha_2017": 6.2442477063047725, "id_group": 14 }, "geometry": { "type": "Polygon", "coordinates": [ [ [ -69.132367972213316, -2.006656681666135 ], [ -69.132367972213316, 0.418794585456746 ], [ -66.70691670509062, 0.418794585456735 ], [ -66.70691670509062, -2.006656681666218 ], [ -69.132367972213316, -2.006656681666135 ] ] ] } },
{ "type": "Feature", "properties": { "X1": 1.0, "log_hist_precip": 0.90484434179661033, "log_hist_temp": 0.77033344778689117, "lat": 0.92479151901221912, "lon": -0.91151007468290068, "latlon": -0.84295678656094097, "log_co2e_ha_2017": 6.2767588977825621, "id_group": 15 }, "geometry": { "type": "Polygon", "coordinates": [ [ [ -66.706916705090606, -2.006656681666218 ], [ -66.706916705090606, 0.418794585456735 ], [ -64.28146543796791, 0.418794585456269 ], [ -64.28146543796791, -2.006656681666216 ], [ -66.706916705090606, -2.006656681666218 ] ] ] } },
{ "type": "Feature", "properties": { "X1": 1.0, "log_hist_precip": 0.81895673636891675, "log_hist_temp": 0.73305689861205892, "lat": 0.92479151901224343, "lon": -0.56148483133682903, "latlon": -0.51925641007431944, "log_co2e_ha_2017": 6.154216644394686, "id_group": 16 }, "geometry": { "type": "Polygon", "coordinates": [ [ [ -64.281465437967896, -2.006656681666216 ], [ -64.281465437967896, 0.41879458545627 ], [ -61.856014170845199, 0.418794585456868 ], [ -61.856014170845199, -2.006656681666107 ], [ -64.281465437967896, -2.006656681666216 ] ] ] } },
{ "type": "Feature", "properties": { "X1": 1.0, "log_hist_precip": 0.34227173295528257, "log_hist_temp": 0.92679516751128477, "lat": 0.92479151901224255, "lon": -0.21145958799071851, "latlon": -0.19555603358763954, "log_co2e_ha_2017": 6.2786164672964917, "id_group": 17 }, "geometry": { "type": "Polygon", "coordinates": [ [ [ -61.856014170845199, -2.006656681666107 ], [ -61.856014170845199, 0.418794585456868 ], [ -59.430562903722475, 0.418794585456184 ], [ -59.430562903722475, -2.006656681666177 ], [ -61.856014170845199, -2.006656681666107 ] ] ] } },
{ "type": "Feature", "properties": { "X1": 1.0, "log_hist_precip": 0.30973323846556822, "log_hist_temp": 0.79529004044571094, "lat": 0.92479151901222001, "lon": 0.13856565535532642, "latlon": 0.12814434289897608, "log_co2e_ha_2017": 6.4144595910627666, "id_group": 18 }, "geometry": { "type": "Polygon", "coordinates": [ [ [ -59.430562903722489, -2.006656681666177 ], [ -59.430562903722489, 0.418794585456184 ], [ -57.005111636599779, 0.418794585456746 ], [ -57.005111636599779, -2.006656681666223 ], [ -59.430562903722489, -2.006656681666177 ] ] ] } },
{ "type": "Feature", "properties": { "X1": 1.0, "log_hist_precip": 0.4291320859170823, "log_hist_temp": 0.21273886787922294, "lat": 0.92479151901221868, "lon": 0.48859089870139388, "latlon": 0.45184471938560711, "log_co2e_ha_2017": 6.3995030233099754, "id_group": 19 }, "geometry": { "type": "Polygon", "coordinates": [ [ [ -57.005111636599779, -2.006656681666223 ], [ -57.005111636599779, 0.418794585456746 ], [ -54.579660369477068, 0.418794585456265 ], [ -54.579660369477068, -2.00665668166627 ], [ -57.005111636599779, -2.006656681666223 ] ] ] } },
{ "type": "Feature", "properties": { "X1": 1.0, "log_hist_precip": -0.066618848632664068, "log_hist_temp": -0.086299823842480472, "lat": 0.92479151901219725, "lon": 0.83861614204746038, "latlon": 0.77554509587221943, "log_co2e_ha_2017": 6.4763697621476952, "id_group": 20 }, "geometry": { "type": "Polygon", "coordinates": [ [ [ -54.579660369477068, -2.00665668166627 ], [ -54.579660369477068, 0.418794585456265 ], [ -52.154209102354358, 0.418794585456523 ], [ -52.154209102354358, -2.006656681666259 ], [ -54.579660369477068, -2.00665668166627 ] ] ] } },
{ "type": "Feature", "properties": { "X1": 1.0, "log_hist_precip": 0.55817771469575517, "log_hist_temp": 0.76659288572105444, "lat": 0.92479151901221057, "lon": 1.1886413853935771, "latlon": 1.0992454723589047, "log_co2e_ha_2017": 6.325777307130136, "id_group": 21 }, "geometry": { "type": "Polygon", "coordinates": [ [ [ -52.154209102354358, -2.006656681666259 ], [ -52.154209102354358, 0.418794585456523 ], [ -49.728757835231647, 0.418794585456237 ], [ -49.728757835231654, -2.006656681666254 ], [ -52.154209102354358, -2.006656681666259 ] ] ] } },
{ "type": "Feature", "properties": { "X1": 1.0, "log_hist_precip": 1.1713475065558818, "log_hist_temp": 1.004984079962745, "lat": 0.92479151901220347, "lon": 1.5386666287396364, "latlon": 1.4229458488455144, "log_co2e_ha_2017": 5.9950385670884323, "id_group": 22 }, "geometry": { "type": "Polygon", "coordinates": [ [ [ -49.728757835231654, -2.006656681666254 ], [ -49.728757835231654, 0.418794585456237 ], [ -47.303306568108944, 0.418794585456361 ], [ -47.303306568108944, -2.006656681666282 ], [ -49.728757835231654, -2.006656681666254 ] ] ] } },
{ "type": "Feature", "properties": { "X1": 1.0, "log_hist_precip": 0.20427011326104355, "log_hist_temp": 0.55183722258913948, "lat": 0.92479151901220547, "lon": 1.8886918720856689, "latlon": 1.7466462253321118, "log_co2e_ha_2017": 5.7077807647064631, "id_group": 23 }, "geometry": { "type": "Polygon", "coordinates": [ [ [ -47.303306568108944, -2.006656681666282 ], [ -47.303306568108944, 0.418794585456361 ], [ -44.877855300986234, 0.418794585456615 ], [ -44.877855300986234, -2.006656681666213 ], [ -47.303306568108944, -2.006656681666282 ] ] ] } },
{ "type": "Feature", "properties": { "X1": 1.0, "log_hist_precip": 1.660218972904423, "log_hist_temp": 0.73675855167954951, "lat": 0.40902382429809037, "lon": -1.6115605613750685, "latlon": -0.65916666390160794, "log_co2e_ha_2017": 6.4474396299736547, "id_group": 24 }, "geometry": { "type": "Polygon", "coordinates": [ [ [ -71.557819239336027, -4.432107948788873 ], [ -71.557819239336027, -2.006656681666259 ], [ -69.132367972213345, -2.006656681666134 ], [ -69.132367972213345, -4.432107948788884 ], [ -71.557819239336027, -4.432107948788873 ] ] ] } },
{ "type": "Feature", "properties": { "X1": 1.0, "log_hist_precip": 1.6439730640879149, "log_hist_temp": 0.33315763298835688, "lat": 0.40902382429809025, "lon": -1.2615353180289466, "latlon": -0.51599800026730724, "log_co2e_ha_2017": 6.3896695783117847, "id_group": 25 }, "geometry": { "type": "Polygon", "coordinates": [ [ [ -69.132367972213331, -4.432107948788885 ], [ -69.132367972213316, -2.006656681666135 ], [ -66.70691670509062, -2.006656681666218 ], [ -66.70691670509062, -4.432107948788881 ], [ -69.132367972213331, -4.432107948788885 ] ] ] } },
{ "type": "Feature", "properties": { "X1": 1.0, "log_hist_precip": 1.5184959679543668, "log_hist_temp": 0.90786825195965803, "lat": 0.40902382429808826, "lon": -0.9115100746829109, "latlon": -0.37282933663304024, "log_co2e_ha_2017": 6.311727865346259, "id_group": 26 }, "geometry": { "type": "Polygon", "coordinates": [ [ [ -66.706916705090606, -4.432107948788881 ], [ -66.706916705090606, -2.006656681666218 ], [ -64.28146543796791, -2.006656681666216 ], [ -64.28146543796791, -4.432107948788934 ], [ -66.706916705090606, -4.432107948788881 ] ] ] } },
{ "type": "Feature", "properties": { "X1": 1.0, "log_hist_precip": 0.87795583390218856, "log_hist_temp": 0.84426812928193196, "lat": 0.40902382429808554, "lon": -0.56148483133684035, "latlon": -0.22966067299875997, "log_co2e_ha_2017": 6.2641248744895162, "id_group": 27 }, "geometry": { "type": "Polygon", "coordinates": [ [ [ -64.281465437967896, -4.432107948788934 ], [ -64.281465437967896, -2.006656681666216 ], [ -61.856014170845199, -2.006656681666107 ], [ -61.856014170845199, -4.432107948788933 ], [ -64.281465437967896, -4.432107948788934 ] ] ] } },
{ "type": "Feature", "properties": { "X1": 1.0, "log_hist_precip": 0.53957900973925066, "log_hist_temp": 1.0624604838772778, "lat": 0.40902382429809925, "lon": -0.2114595879907093, "latlon": -0.086492009364460332, "log_co2e_ha_2017": 6.2090502206655129, "id_group": 28 }, "geometry": { "type": "Polygon", "coordinates": [ [ [ -61.856014170845199, -4.432107948788933 ], [ -61.856014170845199, -2.006656681666107 ], [ -59.430562903722475, -2.006656681666177 ], [ -59.430562903722475, -4.432107948788856 ], [ -61.856014170845199, -4.432107948788933 ] ] ] } },
{ "type": "Feature", "properties": { "X1": 1.0, "log_hist_precip": 0.15815715824164026, "log_hist_temp": 1.3976354150724219, "lat": 0.40902382429811235, "lon": 0.13856565535532847, "latlon": 0.05667665426981066, "log_co2e_ha_2017": 6.3562929375895978, "id_group": 29 }, "geometry": { "type": "Polygon", "coordinates": [ [ [ -59.430562903722489, -4.432107948788856 ], [ -59.430562903722489, -2.006656681666177 ], [ -57.005111636599779, -2.006656681666223 ], [ -57.005111636599779, -4.432107948788933 ], [ -59.430562903722489, -4.432107948788856 ] ] ] } },
{ "type": "Feature", "properties": { "X1": 1.0, "log_hist_precip": -0.34693056699118724, "log_hist_temp": 0.77983453957578319, "lat": 0.40902382429807665, "lon": 0.48859089870140315, "latlon": 0.19984531790408208, "log_co2e_ha_2017": 6.3780663584635988, "id_group": 30 }, "geometry": { "type": "Polygon", "coordinates": [ [ [ -57.005111636599779, -4.432107948788933 ], [ -57.005111636599779, -2.006656681666223 ], [ -54.579660369477068, -2.00665668166627 ], [ -54.579660369477068, -4.432107948788893 ], [ -57.005111636599779, -4.432107948788933 ] ] ] } },
{ "type": "Feature", "properties": { "X1": 1.0, "log_hist_precip": -1.0720693073700571, "log_hist_temp": -0.27507734832405067, "lat": 0.40902382429806777, "lon": 0.83861614204746648, "latlon": 0.34301398153834639, "log_co2e_ha_2017": 6.5043509419687116, "id_group": 31 }, "geometry": { "type": "Polygon", "coordinates": [ [ [ -54.579660369477068, -4.432107948788893 ], [ -54.579660369477068, -2.00665668166627 ], [ -52.154209102354358, -2.006656681666259 ], [ -52.154209102354358, -4.432107948788908 ], [ -54.579660369477068, -4.432107948788893 ] ] ] } },
{ "type": "Feature", "properties": { "X1": 1.0, "log_hist_precip": 0.19574213810079019, "log_hist_temp": 0.095009384328745894, "lat": 0.40902382429806344, "lon": 1.1886413853935689, "latlon": 0.48618264517262583, "log_co2e_ha_2017": 6.4813579497519447, "id_group": 32 }, "geometry": { "type": "Polygon", "coordinates": [ [ [ -52.154209102354358, -4.432107948788908 ], [ -52.154209102354358, -2.006656681666259 ], [ -49.728757835231654, -2.006656681666254 ], [ -49.728757835231647, -4.432107948788888 ], [ -52.154209102354358, -4.432107948788908 ] ] ] } },
{ "type": "Feature", "properties": { "X1": 1.0, "log_hist_precip": -0.072609970252777961, "log_hist_temp": 0.54736257896437979, "lat": 0.40902382429805656, "lon": 1.5386666287396302, "latlon": 0.6293513088068815, "log_co2e_ha_2017": 6.2405071304643949, "id_group": 33 }, "geometry": { "type": "Polygon", "coordinates": [ [ [ -49.728757835231654, -4.432107948788888 ], [ -49.728757835231654, -2.006656681666254 ], [ -47.303306568108944, -2.006656681666282 ], [ -47.303306568108944, -4.432107948788917 ], [ -49.728757835231654, -4.432107948788888 ] ] ] } },
{ "type": "Feature", "properties": { "X1": 1.0, "log_hist_precip": -0.75107006280074751, "log_hist_temp": 0.51669121073177904, "lat": 0.40902382429807854, "lon": 1.8886918720856865, "latlon": 0.77251997244118487, "log_co2e_ha_2017": 6.1390920193625584, "id_group": 34 }, "geometry": { "type": "Polygon", "coordinates": [ [ [ -47.303306568108944, -4.432107948788917 ], [ -47.303306568108944, -2.006656681666282 ], [ -44.877855300986234, -2.006656681666213 ], [ -44.877855300986234, -4.432107948788925 ], [ -47.303306568108944, -4.432107948788917 ] ] ] } },
{ "type": "Feature", "properties": { "X1": 1.0, "log_hist_precip": -1.1920787185223536, "log_hist_temp": 1.5363722442515617, "lat": 0.40902382429807838, "lon": 2.2387171154317951, "latlon": 0.91568863607547535, "log_co2e_ha_2017": 5.3622026717509828, "id_group": 35 }, "geometry": { "type": "Polygon", "coordinates": [ [ [ -44.877855300986234, -4.432107948788925 ], [ -44.877855300986234, -2.006656681666213 ], [ -42.452404033863523, -2.006656681666202 ], [ -42.45240403386353, -4.432107948788921 ], [ -44.877855300986234, -4.432107948788925 ] ] ] } },
{ "type": "Feature", "properties": { "X1": 1.0, "log_hist_precip": 0.89452490038400634, "log_hist_temp": 0.11075132986180651, "lat": -0.10674240657201002, "lon": -1.9615858047211021, "latlon": 0.20938438949342333, "log_co2e_ha_2017": 6.6426909363816353, "id_group": 36 }, "geometry": { "type": "Polygon", "coordinates": [ [ [ -73.983270506458737, -6.857559215911629 ], [ -73.983270506458737, -4.432107948788887 ], [ -71.557819239336041, -4.432107948788873 ], [ -71.557819239336041, -6.857559215911617 ], [ -73.983270506458737, -6.857559215911629 ] ] ] } },
{ "type": "Feature", "properties": { "X1": 1.0, "log_hist_precip": 0.88576635567324846, "log_hist_temp": 0.054752232032582601, "lat": -0.10674240657203005, "lon": -1.6115605613750603, "latlon": 0.17202185265774567, "log_co2e_ha_2017": 6.5615928373171153, "id_group": 37 }, "geometry": { "type": "Polygon", "coordinates": [ [ [ -71.557819239336027, -6.857559215911617 ], [ -71.557819239336027, -4.432107948788873 ], [ -69.132367972213345, -4.432107948788884 ], [ -69.132367972213345, -6.857559215911626 ], [ -71.557819239336027, -6.857559215911617 ] ] ] } },
{ "type": "Feature", "properties": { "X1": 1.0, "log_hist_precip": 0.9761393020235114, "log_hist_temp": 0.1312188613482147, "lat": -0.10674240657202627, "lon": -1.2615353180289384, "latlon": 0.1346593158220154, "log_co2e_ha_2017": 6.4666998214444984, "id_group": 38 }, "geometry": { "type": "Polygon", "coordinates": [ [ [ -69.132367972213316, -6.857559215911627 ], [ -69.132367972213331, -4.432107948788885 ], [ -66.70691670509062, -4.432107948788881 ], [ -66.70691670509062, -6.857559215911613 ], [ -69.132367972213316, -6.857559215911627 ] ] ] } },
{ "type": "Feature", "properties": { "X1": 1.0, "log_hist_precip": 1.049113124125082, "log_hist_temp": 0.58261732512187281, "lat": -0.10674240657205006, "lon": -0.9115100746829089, "latlon": 0.097296778986322774, "log_co2e_ha_2017": 6.4143160445293894, "id_group": 39 }, "geometry": { "type": "Polygon", "coordinates": [ [ [ -66.706916705090606, -6.857559215911613 ], [ -66.706916705090606, -4.432107948788881 ], [ -64.28146543796791, -4.432107948788934 ], [ -64.28146543796791, -6.85755921591161 ], [ -66.706916705090606, -6.857559215911613 ] ] ] } },
{ "type": "Feature", "properties": { "X1": 1.0, "log_hist_precip": 0.37248495460381104, "log_hist_temp": 0.88714426075873576, "lat": -0.10674240657205082, "lon": -0.56148483133680649, "latlon": 0.05993424215059278, "log_co2e_ha_2017": 6.3212899371545195, "id_group": 40 }, "geometry": { "type": "Polygon", "coordinates": [ [ [ -64.281465437967896, -6.857559215911611 ], [ -64.281465437967896, -4.432107948788934 ], [ -61.856014170845199, -4.432107948788933 ], [ -61.856014170845199, -6.857559215911606 ], [ -64.281465437967896, -6.857559215911611 ] ] ] } },
{ "type": "Feature", "properties": { "X1": 1.0, "log_hist_precip": 0.51209829360329706, "log_hist_temp": 1.355128442738371, "lat": -0.1067424065720546, "lon": -0.21145958799076262, "latlon": 0.022571705314869135, "log_co2e_ha_2017": 6.3216057703960633, "id_group": 41 }, "geometry": { "type": "Polygon", "coordinates": [ [ [ -61.856014170845199, -6.857559215911606 ], [ -61.856014170845199, -4.432107948788933 ], [ -59.430562903722475, -4.432107948788856 ], [ -59.430562903722475, -6.857559215911604 ], [ -61.856014170845199, -6.857559215911606 ] ] ] } },
{ "type": "Feature", "properties": { "X1": 1.0, "log_hist_precip": 0.21557906800323873, "log_hist_temp": 1.1125984265347721, "lat": -0.10674240657205006, "lon": 0.13856565535534693, "latlon": -0.014790831520863008, "log_co2e_ha_2017": 6.4439959290621456, "id_group": 42 }, "geometry": { "type": "Polygon", "coordinates": [ [ [ -59.430562903722489, -6.857559215911604 ], [ -59.430562903722489, -4.432107948788856 ], [ -57.005111636599779, -4.432107948788933 ], [ -57.005111636599779, -6.857559215911591 ], [ -59.430562903722489, -6.857559215911604 ] ] ] } },
{ "type": "Feature", "properties": { "X1": 1.0, "log_hist_precip": 0.28397279169764134, "log_hist_temp": 0.18299211028673984, "lat": -0.10674240657203268, "lon": 0.48859089870141337, "latlon": -0.052153368356581103, "log_co2e_ha_2017": 6.5347419595617646, "id_group": 43 }, "geometry": { "type": "Polygon", "coordinates": [ [ [ -57.005111636599779, -6.857559215911591 ], [ -57.005111636599779, -4.432107948788933 ], [ -54.579660369477068, -4.432107948788893 ], [ -54.579660369477068, -6.857559215911625 ], [ -57.005111636599779, -6.857559215911591 ] ] ] } },
{ "type": "Feature", "properties": { "X1": 1.0, "log_hist_precip": -0.76141819207017547, "log_hist_temp": -0.88715732605853359, "lat": -0.10674240657204251, "lon": 0.8386161420474737, "latlon": -0.089515905192309189, "log_co2e_ha_2017": 6.4936561983488801, "id_group": 44 }, "geometry": { "type": "Polygon", "coordinates": [ [ [ -54.579660369477068, -6.857559215911625 ], [ -54.579660369477068, -4.432107948788893 ], [ -52.154209102354358, -4.432107948788908 ], [ -52.154209102354358, -6.857559215911595 ], [ -54.579660369477068, -6.857559215911625 ] ] ] } },
{ "type": "Feature", "properties": { "X1": 1.0, "log_hist_precip": -0.78067683801218335, "log_hist_temp": -0.94666214273190052, "lat": -0.10674240657204553, "lon": 1.1886413853935678, "latlon": -0.12687844202803969, "log_co2e_ha_2017": 6.4061200358798178, "id_group": 45 }, "geometry": { "type": "Polygon", "coordinates": [ [ [ -52.154209102354358, -6.857559215911595 ], [ -52.154209102354358, -4.432107948788908 ], [ -49.728757835231647, -4.432107948788888 ], [ -49.728757835231654, -6.857559215911622 ], [ -52.154209102354358, -6.857559215911595 ] ] ] } },
{ "type": "Feature", "properties": { "X1": 1.0, "log_hist_precip": -1.4033104917244839, "log_hist_temp": 0.12435013094136109, "lat": -0.10674240657202816, "lon": 1.5386666287396231, "latlon": -0.16424097886373676, "log_co2e_ha_2017": 6.0644769894159731, "id_group": 46 }, "geometry": { "type": "Polygon", "coordinates": [ [ [ -49.728757835231654, -6.857559215911622 ], [ -49.728757835231654, -4.432107948788888 ], [ -47.303306568108944, -4.432107948788917 ], [ -47.303306568108951, -6.857559215911592 ], [ -49.728757835231654, -6.857559215911622 ] ] ] } },
{ "type": "Feature", "properties": { "X1": 1.0, "log_hist_precip": -2.8180953766350192, "log_hist_temp": -0.62230919244936478, "lat": -0.10674240657204685, "lon": 1.8886918720856845, "latlon": -0.20160351569949045, "log_co2e_ha_2017": 5.7946891055031147, "id_group": 47 }, "geometry": { "type": "Polygon", "coordinates": [ [ [ -47.303306568108951, -6.857559215911592 ], [ -47.303306568108944, -4.432107948788917 ], [ -44.877855300986234, -4.432107948788925 ], [ -44.877855300986234, -6.857559215911576 ], [ -47.303306568108951, -6.857559215911592 ] ] ] } },
{ "type": "Feature", "properties": { "X1": 1.0, "log_hist_precip": -0.29476732272328104, "log_hist_temp": -0.7251672967451821, "lat": -0.6225060734614386, "lon": -1.9615858047211061, "latlon": 1.2210990770546319, "log_co2e_ha_2017": 6.6468523678162148, "id_group": 48 }, "geometry": { "type": "Polygon", "coordinates": [ [ [ -73.983270506458737, -9.283010483034307 ], [ -73.983270506458737, -6.857559215911629 ], [ -71.557819239336041, -6.857559215911617 ], [ -71.557819239336041, -9.283010483034317 ], [ -73.983270506458737, -9.283010483034307 ] ] ] } },
{ "type": "Feature", "properties": { "X1": 1.0, "log_hist_precip": 0.11986593373390965, "log_hist_temp": -1.1527546566295963, "lat": -0.62250607346143894, "lon": -1.6115605613750459, "latlon": 1.0032062372068922, "log_co2e_ha_2017": 6.6611801719080583, "id_group": 49 }, "geometry": { "type": "Polygon", "coordinates": [ [ [ -71.557819239336027, -9.283010483034319 ], [ -71.557819239336027, -6.857559215911617 ], [ -69.132367972213345, -6.857559215911626 ], [ -69.132367972213345, -9.283010483034323 ], [ -71.557819239336027, -9.283010483034319 ] ] ] } },
{ "type": "Feature", "properties": { "X1": 1.0, "log_hist_precip": 0.023550270508629432, "log_hist_temp": -0.71640103762324236, "lat": -0.62250607346145892, "lon": -1.2615353180289508, "latlon": 0.78531339735915495, "log_co2e_ha_2017": 6.5875900444467215, "id_group": 50 }, "geometry": { "type": "Polygon", "coordinates": [ [ [ -69.132367972213316, -9.283010483034325 ], [ -69.132367972213316, -6.857559215911627 ], [ -66.70691670509062, -6.857559215911613 ], [ -66.70691670509062, -9.283010483034335 ], [ -69.132367972213316, -9.283010483034325 ] ] ] } },
{ "type": "Feature", "properties": { "X1": 1.0, "log_hist_precip": 0.22628912620982206, "log_hist_temp": 0.22976264503222923, "lat": -0.62250607346144948, "lon": -0.91151007468290479, "latlon": 0.56742055751140763, "log_co2e_ha_2017": 6.4645511289442066, "id_group": 51 }, "geometry": { "type": "Polygon", "coordinates": [ [ [ -66.706916705090606, -9.283010483034335 ], [ -66.706916705090606, -6.857559215911613 ], [ -64.28146543796791, -6.85755921591161 ], [ -64.28146543796791, -9.28301048303433 ], [ -66.706916705090606, -9.283010483034335 ] ] ] } },
{ "type": "Feature", "properties": { "X1": 1.0, "log_hist_precip": 0.22002741910814536, "log_hist_temp": -0.064160094988032629, "lat": -0.62250607346144915, "lon": -0.5614848313368086, "latlon": 0.34952771766364077, "log_co2e_ha_2017": 6.3336270765097655, "id_group": 52 }, "geometry": { "type": "Polygon", "coordinates": [ [ [ -64.281465437967896, -9.28301048303433 ], [ -64.281465437967896, -6.857559215911611 ], [ -61.856014170845199, -6.857559215911606 ], [ -61.856014170845199, -9.283010483034341 ], [ -64.281465437967896, -9.28301048303433 ] ] ] } },
{ "type": "Feature", "properties": { "X1": 1.0, "log_hist_precip": 0.27176097302563845, "log_hist_temp": 0.10750018379137442, "lat": -0.62250607346144426, "lon": -0.21145958799073697, "latlon": 0.13163487781588845, "log_co2e_ha_2017": 6.4352156917267944, "id_group": 53 }, "geometry": { "type": "Polygon", "coordinates": [ [ [ -61.856014170845199, -9.283010483034341 ], [ -61.856014170845199, -6.857559215911606 ], [ -59.430562903722475, -6.857559215911604 ], [ -59.430562903722475, -9.28301048303431 ], [ -61.856014170845199, -9.283010483034341 ] ] ] } },
{ "type": "Feature", "properties": { "X1": 1.0, "log_hist_precip": -0.17704634289372415, "log_hist_temp": 0.25006739330019329, "lat": -0.62250607346144571, "lon": 0.13856565535529872, "latlon": -0.086257962031838956, "log_co2e_ha_2017": 6.4017580109884848, "id_group": 54 }, "geometry": { "type": "Polygon", "coordinates": [ [ [ -59.430562903722489, -9.283010483034309 ], [ -59.430562903722489, -6.857559215911604 ], [ -57.005111636599779, -6.857559215911591 ], [ -57.005111636599779, -9.283010483034339 ], [ -59.430562903722489, -9.283010483034309 ] ] ] } },
{ "type": "Feature", "properties": { "X1": 1.0, "log_hist_precip": -0.006734146117880084, "log_hist_temp": 0.096618035231445451, "lat": -0.62250607346144615, "lon": 0.48859089870142364, "latlon": -0.3041508018796224, "log_co2e_ha_2017": 6.3960578895814066, "id_group": 55 }, "geometry": { "type": "Polygon", "coordinates": [ [ [ -57.005111636599779, -9.283010483034339 ], [ -57.005111636599779, -6.857559215911591 ], [ -54.579660369477068, -6.857559215911625 ], [ -54.579660369477068, -9.283010483034298 ], [ -57.005111636599779, -9.283010483034339 ] ] ] } },
{ "type": "Feature", "properties": { "X1": 1.0, "log_hist_precip": -0.32237005366149502, "log_hist_temp": -0.42392756227135076, "lat": -0.62250607346143627, "lon": 0.83861614204748292, "latlon": -0.52204364172735662, "log_co2e_ha_2017": 6.3404866145358048, "id_group": 56 }, "geometry": { "type": "Polygon", "coordinates": [ [ [ -54.579660369477068, -9.283010483034298 ], [ -54.579660369477068, -6.857559215911625 ], [ -52.154209102354358, -6.857559215911595 ], [ -52.154209102354358, -9.283010483034294 ], [ -54.579660369477068, -9.283010483034298 ] ] ] } },
{ "type": "Feature", "properties": { "X1": 1.0, "log_hist_precip": -0.58293047738582238, "log_hist_temp": -0.80129532741509113, "lat": -0.62250607346142872, "lon": 1.1886413853935536, "latlon": -0.73993648157509384, "log_co2e_ha_2017": 6.0658922981271042, "id_group": 57 }, "geometry": { "type": "Polygon", "coordinates": [ [ [ -52.154209102354358, -9.283010483034294 ], [ -52.154209102354358, -6.857559215911595 ], [ -49.728757835231654, -6.857559215911622 ], [ -49.728757835231647, -9.28301048303431 ], [ -52.154209102354358, -9.283010483034294 ] ] ] } },
{ "type": "Feature", "properties": { "X1": 1.0, "log_hist_precip": -1.1914749512137905, "log_hist_temp": -0.22453553249009683, "lat": -0.62250607346143971, "lon": 1.5386666287396342, "latlon": -0.95782932142286048, "log_co2e_ha_2017": 5.6453093380700432, "id_group": 58 }, "geometry": { "type": "Polygon", "coordinates": [ [ [ -49.728757835231654, -9.28301048303431 ], [ -49.728757835231654, -6.857559215911622 ], [ -47.303306568108951, -6.857559215911592 ], [ -47.303306568108944, -9.283010483034312 ], [ -49.728757835231654, -9.28301048303431 ] ] ] } },
{ "type": "Feature", "properties": { "X1": 1.0, "log_hist_precip": -1.1089556292682683, "log_hist_temp": -1.0770198099399766, "lat": -1.1382660804379672, "lon": -1.9615858047211143, "latlon": 2.2328065853826584, "log_co2e_ha_2017": 6.803214688531658, "id_group": 59 }, "geometry": { "type": "Polygon", "coordinates": [ [ [ -73.983270506458737, -11.708461750157035 ], [ -73.983270506458737, -9.283010483034307 ], [ -71.557819239336041, -9.283010483034317 ], [ -71.557819239336041, -11.708461750157031 ], [ -73.983270506458737, -11.708461750157035 ] ] ] } },
{ "type": "Feature", "properties": { "X1": 1.0, "log_hist_precip": -0.68296442509501043, "log_hist_temp": -1.4500835499990223, "lat": -1.1382660804379523, "lon": -1.6115605613750499, "latlon": 1.8343847235847641, "log_co2e_ha_2017": 6.6996572424465546, "id_group": 60 }, "geometry": { "type": "Polygon", "coordinates": [ [ [ -71.557819239336027, -11.708461750157033 ], [ -71.557819239336027, -9.283010483034319 ], [ -69.132367972213345, -9.283010483034323 ], [ -69.132367972213345, -11.708461750157035 ], [ -71.557819239336027, -11.708461750157033 ] ] ] } },
{ "type": "Feature", "properties": { "X1": 1.0, "log_hist_precip": -1.2027665859880172, "log_hist_temp": -0.50146062794615109, "lat": -1.1382660804379274, "lon": -1.2615353180289528, "latlon": 1.4359628617868303, "log_co2e_ha_2017": 6.5542752259399233, "id_group": 61 }, "geometry": { "type": "Polygon", "coordinates": [ [ [ -69.132367972213316, -11.708461750157035 ], [ -69.132367972213316, -9.283010483034325 ], [ -66.70691670509062, -9.283010483034335 ], [ -66.70691670509062, -11.708461750157031 ], [ -69.132367972213316, -11.708461750157035 ] ] ] } },
{ "type": "Feature", "properties": { "X1": 1.0, "log_hist_precip": -1.1424233052534731, "log_hist_temp": 0.7397033420267507, "lat": -1.1382660804379139, "lon": -0.91151007468291501, "latlon": 1.0375409999889917, "log_co2e_ha_2017": 6.4799463350187896, "id_group": 62 }, "geometry": { "type": "Polygon", "coordinates": [ [ [ -66.706916705090606, -11.708461750157033 ], [ -66.706916705090606, -9.283010483034335 ], [ -64.28146543796791, -9.28301048303433 ], [ -64.28146543796791, -11.708461750157023 ], [ -66.706916705090606, -11.708461750157033 ] ] ] } },
{ "type": "Feature", "properties": { "X1": 1.0, "log_hist_precip": -0.57055859074397541, "log_hist_temp": -0.96807324637984016, "lat": -1.1382660804379143, "lon": -0.56148483133681781, "latlon": 0.639119138191103, "log_co2e_ha_2017": 6.4142509050935894, "id_group": 63 }, "geometry": { "type": "Polygon", "coordinates": [ [ [ -64.281465437967896, -11.708461750157023 ], [ -64.281465437967896, -9.28301048303433 ], [ -61.856014170845199, -9.283010483034341 ], [ -61.856014170845199, -11.708461750157049 ], [ -64.281465437967896, -11.708461750157023 ] ] ] } },
{ "type": "Feature", "properties": { "X1": 1.0, "log_hist_precip": -0.37519430713872004, "log_hist_temp": -1.3571252226039148, "lat": -1.1382660804379221, "lon": -0.21145958799072365, "latlon": 0.24069727639321892, "log_co2e_ha_2017": 6.4799326255554197, "id_group": 64 }, "geometry": { "type": "Polygon", "coordinates": [ [ [ -61.856014170845199, -11.708461750157049 ], [ -61.856014170845199, -9.283010483034341 ], [ -59.430562903722475, -9.28301048303431 ], [ -59.430562903722475, -11.708461750157007 ], [ -61.856014170845199, -11.708461750157049 ] ] ] } },
{ "type": "Feature", "properties": { "X1": 1.0, "log_hist_precip": -0.48781667546483143, "log_hist_temp": -0.69020644984487733, "lat": -1.1382660804379339, "lon": 0.13856565535531717, "latlon": -0.15772458540461048, "log_co2e_ha_2017": 6.2692124199296568, "id_group": 65 }, "geometry": { "type": "Polygon", "coordinates": [ [ [ -59.430562903722489, -11.708461750157007 ], [ -59.430562903722489, -9.283010483034309 ], [ -57.005111636599779, -9.283010483034339 ], [ -57.005111636599779, -11.708461750157014 ], [ -59.430562903722489, -11.708461750157007 ] ] ] } },
{ "type": "Feature", "properties": { "X1": 1.0, "log_hist_precip": -0.25281498488970189, "log_hist_temp": 0.036377676918218249, "lat": -1.1382660804379208, "lon": 0.48859089870139799, "latlon": -0.55614644720248152, "log_co2e_ha_2017": 6.0722144387207599, "id_group": 66 }, "geometry": { "type": "Polygon", "coordinates": [ [ [ -57.005111636599779, -11.708461750157014 ], [ -57.005111636599779, -9.283010483034339 ], [ -54.579660369477068, -9.283010483034298 ], [ -54.579660369477075, -11.70846175015701 ], [ -57.005111636599779, -11.708461750157014 ] ] ] } },
{ "type": "Feature", "properties": { "X1": 1.0, "log_hist_precip": -0.23122981696573988, "log_hist_temp": -0.17844136173891079, "lat": -1.1382660804379117, "lon": 0.83861614204745827, "latlon": -0.9545683090003233, "log_co2e_ha_2017": 5.9951632543813904, "id_group": 67 }, "geometry": { "type": "Polygon", "coordinates": [ [ [ -54.579660369477075, -11.70846175015701 ], [ -54.579660369477068, -9.283010483034298 ], [ -52.154209102354358, -9.283010483034294 ], [ -52.154209102354358, -11.70846175015704 ], [ -54.579660369477075, -11.70846175015701 ] ] ] } },
{ "type": "Feature", "properties": { "X1": 1.0, "log_hist_precip": -1.0594445720962451, "log_hist_temp": 0.59117543893438873, "lat": -1.1382660804379396, "lon": 1.1886413853935944, "latlon": -1.3529901707982892, "log_co2e_ha_2017": 5.7374164132809495, "id_group": 68 }, "geometry": { "type": "Polygon", "coordinates": [ [ [ -52.154209102354358, -11.70846175015704 ], [ -52.154209102354358, -9.283010483034294 ], [ -49.728757835231647, -9.28301048303431 ], [ -49.728757835231647, -11.70846175015703 ], [ -52.154209102354358, -11.70846175015704 ] ] ] } },
{ "type": "Feature", "properties": { "X1": 1.0, "log_hist_precip": -1.6521283587194213, "log_hist_temp": 0.76522402756722863, "lat": -1.6540213370491239, "lon": -0.91151007468290479, "latlon": 1.5076571124607649, "log_co2e_ha_2017": 6.3089899388161097, "id_group": 69 }, "geometry": { "type": "Polygon", "coordinates": [ [ [ -66.706916705090606, -14.133913017279735 ], [ -66.706916705090606, -11.708461750157033 ], [ -64.28146543796791, -11.708461750157023 ], [ -64.28146543796791, -14.133913017279749 ], [ -66.706916705090606, -14.133913017279735 ] ] ] } },
{ "type": "Feature", "properties": { "X1": 1.0, "log_hist_precip": -1.9613557861730038, "log_hist_temp": -0.3238762590475539, "lat": -1.654021337049133, "lon": -0.56148483133681271, "latlon": 0.92870789146052191, "log_co2e_ha_2017": 6.1808165601239482, "id_group": 70 }, "geometry": { "type": "Polygon", "coordinates": [ [ [ -64.281465437967896, -14.133913017279749 ], [ -64.281465437967896, -11.708461750157023 ], [ -61.856014170845199, -11.708461750157033 ], [ -61.856014170845199, -14.133913017279719 ], [ -64.281465437967896, -14.133913017279749 ] ] ] } },
{ "type": "Feature", "properties": { "X1": 1.0, "log_hist_precip": -1.093749911991527, "log_hist_temp": -1.6351625387893292, "lat": -1.6540213370491106, "lon": -0.21145958799073697, "latlon": 0.3497586704602928, "log_co2e_ha_2017": 6.1080415868950162, "id_group": 71 }, "geometry": { "type": "Polygon", "coordinates": [ [ [ -61.856014170845199, -14.133913017279719 ], [ -61.856014170845199, -11.708461750157033 ], [ -59.430562903722475, -11.708461750157007 ], [ -59.430562903722475, -14.133913017279738 ], [ -61.856014170845199, -14.133913017279719 ] ] ] } },
{ "type": "Feature", "properties": { "X1": 1.0, "log_hist_precip": -0.43540569801969714, "log_hist_temp": -2.041238124994293, "lat": -1.6540213370490948, "lon": 0.13856565535532128, "latlon": -0.22919055053989257, "log_co2e_ha_2017": 6.0332554641047542, "id_group": 72 }, "geometry": { "type": "Polygon", "coordinates": [ [ [ -59.430562903722489, -14.133913017279738 ], [ -59.430562903722489, -11.708461750157007 ], [ -57.005111636599779, -11.708461750157014 ], [ -57.005111636599779, -14.133913017279736 ], [ -59.430562903722489, -14.133913017279738 ] ] ] } },
{ "type": "Feature", "properties": { "X1": 1.0, "log_hist_precip": -0.65518275222609879, "log_hist_temp": -1.96826861849172, "lat": -1.6540213370491217, "lon": 0.4885908987014021, "latlon": -0.80813977154012506, "log_co2e_ha_2017": 5.9614345696472055, "id_group": 73 }, "geometry": { "type": "Polygon", "coordinates": [ [ [ -57.005111636599779, -14.133913017279736 ], [ -57.005111636599779, -11.708461750157014 ], [ -54.579660369477075, -11.70846175015701 ], [ -54.579660369477061, -14.133913017279735 ], [ -57.005111636599779, -14.133913017279736 ] ] ] } },
{ "type": "Feature", "properties": { "X1": 1.0, "log_hist_precip": -1.3799265286164624, "log_hist_temp": -1.5738651506874959, "lat": -1.6540213370491319, "lon": 0.8386161420474747, "latlon": -1.3870889925403489, "log_co2e_ha_2017": 5.8546711408354106, "id_group": 74 }, "geometry": { "type": "Polygon", "coordinates": [ [ [ -54.579660369477061, -14.133913017279735 ], [ -54.579660369477075, -11.70846175015701 ], [ -52.154209102354358, -11.70846175015704 ], [ -52.154209102354358, -14.133913017279744 ], [ -54.579660369477061, -14.133913017279735 ] ] ] } },
{ "type": "Feature", "properties": { "X1": 1.0, "log_hist_precip": -1.6958371733793045, "log_hist_temp": 0.25428704954300757, "lat": -1.6540213370491152, "lon": 1.1886413853935822, "latlon": -1.9660382135406056, "log_co2e_ha_2017": 5.6781544674940028, "id_group": 75 }, "geometry": { "type": "Polygon", "coordinates": [ [ [ -52.154209102354358, -14.133913017279744 ], [ -52.154209102354358, -11.70846175015704 ], [ -49.728757835231647, -11.70846175015703 ], [ -49.728757835231647, -14.13391301727972 ], [ -52.154209102354358, -14.133913017279744 ] ] ] } },
{ "type": "Feature", "properties": { "X1": 1.0, "log_hist_precip": -2.3440820163817553, "log_hist_temp": -0.52742889587106279, "lat": -2.169770759009428, "lon": -0.2114595879907421, "latlon": 0.45881883073449342, "log_co2e_ha_2017": 5.8343288966284286, "id_group": 76 }, "geometry": { "type": "Polygon", "coordinates": [ [ [ -61.856014170845199, -16.559364284402452 ], [ -61.856014170845199, -14.133913017279719 ], [ -59.430562903722475, -14.133913017279738 ], [ -59.430562903722475, -16.559364284402442 ], [ -61.856014170845199, -16.559364284402452 ] ] ] } },
{ "type": "Feature", "properties": { "X1": 1.0, "log_hist_precip": -1.7931551612192258, "log_hist_temp": -1.1710412088286477, "lat": -2.1697707590094435, "lon": 0.1385656553553295, "latlon": -0.30065570719297424, "log_co2e_ha_2017": 5.6425586981936826, "id_group": 77 }, "geometry": { "type": "Polygon", "coordinates": [ [ [ -59.430562903722489, -16.559364284402442 ], [ -59.430562903722489, -14.133913017279738 ], [ -57.005111636599779, -14.133913017279736 ], [ -57.005111636599779, -16.559364284402449 ], [ -59.430562903722489, -16.559364284402442 ] ] ] } },
{ "type": "Feature", "properties": { "X1": 1.0, "log_hist_precip": -1.9430981097993429, "log_hist_temp": -2.4375136149485539, "lat": -2.1697707590094395, "lon": 0.48859089870141031, "latlon": -1.0601302451204633, "log_co2e_ha_2017": 5.7249363719611344, "id_group": 78 }, "geometry": { "type": "Polygon", "coordinates": [ [ [ -57.005111636599779, -16.559364284402449 ], [ -57.005111636599779, -14.133913017279736 ], [ -54.579660369477061, -14.133913017279735 ], [ -54.579660369477068, -16.559364284402445 ], [ -57.005111636599779, -16.559364284402449 ] ] ] } }
]
}
